0 COSMOS 2251 DEB
1 34689U 93036YK  13281.70181558  .00002876  00000-0  22603-2 0   394
2 34689 074.1048 115.9746 0318932 164.2400 323.6474 13.71030603229750
0 COSMOS 2251 DEB
1 34689U 93036YK  13282.72355995  .00003102  00000-0  24355-2 0   406
2 34689 074.1049 114.2945 0318904 162.3181 326.6974 13.71040586229892
0 COSMOS 2251 DEB
1 34689U 93036YK  13286.66324338  .00004053  00000-0  31763-2 0   429
2 34689 074.1043 107.8161 0318777 154.9078 332.1672 13.71065844230437
0 COSMOS 2251 DEB
1 34689U 93036YK  13287.68546080  .00005429  00000-0  42483-2 0   432
2 34689 074.1042 106.1359 0318749 152.9886 337.6820 13.71074828230573
0 COSMOS 2251 DEB
1 34689U 93036YK  13289.65586934  .00006020  00000-0  47078-2 0   447
2 34689 074.1046 102.8947 0318645 149.3019 343.4220 13.71093061230845
0 COSMOS 2251 DEB
1 34689U 93036YK  13290.89452877  .00005059  00000-0  39593-2 0   458
2 34689 074.1048 100.8577 0318539 146.9845 337.3846 13.71105766231018
0 COSMOS 2251 DEB
1 34689U 93036YK  13292.64607133  .00004985  00000-0  39016-2 0   468
2 34689 074.1059 097.9771 0318390 143.6891 343.0210 13.71121726231251
0 COSMOS 2251 DEB
1 34689U 93036YK  13293.88598247  .00005506  00000-0  43083-2 0   470
2 34689 074.1061 095.9384 0318264 141.3633 343.2963 13.71132488231424
0 COSMOS 2251 DEB
1 34689U 93036YK  13295.12573345  .00005965  00000-0  46660-2 0   485
2 34689 074.1060 093.9001 0318127 139.0521 342.8183 13.71143559231593
